SAUDISAT 1C (SO-50)     
1 27607U 02058C   26168.49245841  .00000788  00000+0  11042-3 0  9990
2 27607  64.5510 128.0407 0075265 262.4185  96.8368 14.83047547264500
SAUDISAT 2              
1 28371U 04025F   26168.50978329  .00000186  00000+0  52562-4 0  9996
2 28371  98.5508 168.5000 0023578 297.2213  62.6582 14.56684071165798
SAUDISAT 3              
1 31118U 07012B   26168.46269470  .00000202  00000+0  40852-4 0  9991
2 31118  98.1456 118.8635 0013648 222.8868 137.1275 14.71425774 27781
PISAT                   
1 41784U 16059B   26168.48459061  .00000656  00000+0  11936-3 0  9994
2 41784  97.8179 168.9246 0028408 201.7782 158.2218 14.68983786519789
FLYING LAPTOP           
1 42831U 17042G   26168.51881318  .00003051  00000+0  24168-3 0  9992
2 42831  97.4690 324.0383 0019628 120.6225 239.6938 15.01148007486502
SALSAT                  
1 46495U 20068K   26168.47256565  .00006216  00000+0  21810-3 0  9996
2 46495  97.8846 171.5545 0008034 306.9379  53.1123 15.29803093315400
